[{"OBJECT_NAME":"STARLINK-4399","OBJECT_ID":"2022-099E","EPOCH":"2026-03-23T21:27:47.938176","MEAN_MOTION":15.05647934,"ECCENTRICITY":0.0001283,"INCLINATION":97.6038,"RA_OF_ASC_NODE":205.2432,"ARG_OF_PERICENTER":212.1519,"MEAN_ANOMALY":147.963,"EPHEMERIS_TYPE":0,"CLASSIFICATION_TYPE":"U","NORAD_CAT_ID":53469,"ELEMENT_SET_NO":999,"REV_AT_EPOCH":19818,"BSTAR":0.00014153397,"MEAN_MOTION_DOT":1.982e-5,"MEAN_MOTION_DDOT":0},{"OBJECT_NAME":"STARLINK-4393","OBJECT_ID":"2022-099F","EPOCH":"2026-03-23T22:03:28.153440","MEAN_MOTION":15.01255778,"ECCENTRICITY":3.695e-5,"INCLINATION":97.6015,"RA_OF_ASC_NODE":204.1412,"ARG_OF_PERICENTER":118.9132,"MEAN_ANOMALY":241.2129,"EPHEMERIS_TYPE":0,"CLASSIFICATION_TYPE":"U","NORAD_CAT_ID":53470,"ELEMENT_SET_NO":999,"REV_AT_EPOCH":19811,"BSTAR":-5.3316957e-5,"MEAN_MOTION_DOT":-7.43e-6,"MEAN_MOTION_DDOT":0},{"OBJECT_NAME":"STARLINK-4316","OBJECT_ID":"2022-099G","EPOCH":"2026-03-23T21:55:42.809952","MEAN_MOTION":15.05657917,"ECCENTRICITY":0.00011749,"INCLINATION":97.6022,"RA_OF_ASC_NODE":205.2102,"ARG_OF_PERICENTER":174.0993,"MEAN_ANOMALY":186.0248,"EPHEMERIS_TYPE":0,"CLASSIFICATION_TYPE":"U","NORAD_CAT_ID":53471,"ELEMENT_SET_NO":999,"REV_AT_EPOCH":19818,"BSTAR":0.00044390702,"MEAN_MOTION_DOT":6.351e-5,"MEAN_MOTION_DDOT":0},{"OBJECT_NAME":"STARLINK-4447","OBJECT_ID":"2022-099H","EPOCH":"2026-03-23T21:58:07.777920","MEAN_MOTION":15.01263073,"ECCENTRICITY":3.242e-5,"INCLINATION":97.6016,"RA_OF_ASC_NODE":204.1363,"ARG_OF_PERICENTER":140.5829,"MEAN_ANOMALY":219.5419,"EPHEMERIS_TYPE":0,"CLASSIFICATION_TYPE":"U","NORAD_CAT_ID":53472,"ELEMENT_SET_NO":999,"REV_AT_EPOCH":19811,"BSTAR":-6.6703016e-5,"MEAN_MOTION_DOT":-9.15e-6,"MEAN_MOTION_DDOT":0},{"OBJECT_NAME":"STARLINK-4383","OBJECT_ID":"2022-099J","EPOCH":"2026-03-23T21:07:52.822272","MEAN_MOTION":15.05635679,"ECCENTRICITY":0.00014837,"INCLINATION":97.6043,"RA_OF_ASC_NODE":205.2452,"ARG_OF_PERICENTER":98.6131,"MEAN_ANOMALY":261.5264,"EPHEMERIS_TYPE":0,"CLASSIFICATION_TYPE":"U","NORAD_CAT_ID":53473,"ELEMENT_SET_NO":999,"REV_AT_EPOCH":19818,"BSTAR":9.314048e-5,"MEAN_MOTION_DOT":1.283e-5,"MEAN_MOTION_DDOT":0},{"OBJECT_NAME":"STARLINK-4445","OBJECT_ID":"2022-099K","EPOCH":"2026-03-24T00:00:02.000160","MEAN_MOTION":15.05659864,"ECCENTRICITY":0.00016789,"INCLINATION":97.6037,"RA_OF_ASC_NODE":204.2301,"ARG_OF_PERICENTER":87.6814,"MEAN_ANOMALY":117.4249,"EPHEMERIS_TYPE":0,"CLASSIFICATION_TYPE":"U","NORAD_CAT_ID":53474,"ELEMENT_SET_NO":999,"REV_AT_EPOCH":577,"BSTAR":-0.0030012989,"MEAN_MOTION_DOT":-0.00043118,"MEAN_MOTION_DDOT":0},{"OBJECT_NAME":"STARLINK-4389","OBJECT_ID":"2022-099L","EPOCH":"2026-03-24T00:00:02.000160","MEAN_MOTION":15.09241043,"ECCENTRICITY":0.00022683,"INCLINATION":97.6039,"RA_OF_ASC_NODE":204.2886,"ARG_OF_PERICENTER":75.1332,"MEAN_ANOMALY":229.3054,"EPHEMERIS_TYPE":0,"CLASSIFICATION_TYPE":"U","NORAD_CAT_ID":53475,"ELEMENT_SET_NO":999,"REV_AT_EPOCH":572,"BSTAR":-0.0015029125,"MEAN_MOTION_DOT":-0.00023883,"MEAN_MOTION_DDOT":0},{"OBJECT_NAME":"STARLINK-4378","OBJECT_ID":"2022-099M","EPOCH":"2026-03-24T00:00:02.000160","MEAN_MOTION":15.05684223,"ECCENTRICITY":0.00016377,"INCLINATION":97.6043,"RA_OF_ASC_NODE":204.2928,"ARG_OF_PERICENTER":82.5813,"MEAN_ANOMALY":197.4699,"EPHEMERIS_TYPE":0,"CLASSIFICATION_TYPE":"U","NORAD_CAT_ID":53476,"ELEMENT_SET_NO":999,"REV_AT_EPOCH":578,"BSTAR":-0.0035291706,"MEAN_MOTION_DOT":-0.0005067,"MEAN_MOTION_DDOT":0},{"OBJECT_NAME":"STARLINK-4412","OBJECT_ID":"2022-099N","EPOCH":"2026-03-24T00:00:02.000160","MEAN_MOTION":15.0790019,"ECCENTRICITY":0.00013627,"INCLINATION":97.6026,"RA_OF_ASC_NODE":204.229,"ARG_OF_PERICENTER":43.2279,"MEAN_ANOMALY":118.4351,"EPHEMERIS_TYPE":0,"CLASSIFICATION_TYPE":"U","NORAD_CAT_ID":53477,"ELEMENT_SET_NO":999,"REV_AT_EPOCH":578,"BSTAR":-0.0012158251,"MEAN_MOTION_DOT":-0.00018654,"MEAN_MOTION_DDOT":0},{"OBJECT_NAME":"STARLINK-4433","OBJECT_ID":"2022-099P","EPOCH":"2026-03-23T21:42:07.688160","MEAN_MOTION":15.01258047,"ECCENTRICITY":0.00045941,"INCLINATION":97.6021,"RA_OF_ASC_NODE":204.1369,"ARG_OF_PERICENTER":186.699,"MEAN_ANOMALY":173.4174,"EPHEMERIS_TYPE":0,"CLASSIFICATION_TYPE":"U","NORAD_CAT_ID":53478,"ELEMENT_SET_NO":999,"REV_AT_EPOCH":19811,"BSTAR":0.00012643047,"MEAN_MOTION_DOT":1.566e-5,"MEAN_MOTION_DDOT":0},{"OBJECT_NAME":"STARLINK-4436","OBJECT_ID":"2022-099Q","EPOCH":"2026-03-23T22:11:40.470144","MEAN_MOTION":15.05642067,"ECCENTRICITY":5.582e-5,"INCLINATION":97.6025,"RA_OF_ASC_NODE":205.3226,"ARG_OF_PERICENTER":222.6955,"MEAN_ANOMALY":137.4229,"EPHEMERIS_TYPE":0,"CLASSIFICATION_TYPE":"U","NORAD_CAT_ID":53479,"ELEMENT_SET_NO":999,"REV_AT_EPOCH":19819,"BSTAR":3.4865055e-5,"MEAN_MOTION_DOT":4.42e-6,"MEAN_MOTION_DDOT":0},{"OBJECT_NAME":"STARLINK-4442","OBJECT_ID":"2022-099R","EPOCH":"2026-03-24T00:00:02.000160","MEAN_MOTION":15.08888981,"ECCENTRICITY":0.00017201,"INCLINATION":97.6038,"RA_OF_ASC_NODE":205.3292,"ARG_OF_PERICENTER":76.7966,"MEAN_ANOMALY":152.1193,"EPHEMERIS_TYPE":0,"CLASSIFICATION_TYPE":"U","NORAD_CAT_ID":53480,"ELEMENT_SET_NO":999,"REV_AT_EPOCH":579,"BSTAR":0.015968925,"MEAN_MOTION_DOT":0.00260813,"MEAN_MOTION_DDOT":0},{"OBJECT_NAME":"STARLINK-4302","OBJECT_ID":"2022-099S","EPOCH":"2026-03-24T00:00:02.000160","MEAN_MOTION":15.07845596,"ECCENTRICITY":0.00010501,"INCLINATION":97.6038,"RA_OF_ASC_NODE":204.2625,"ARG_OF_PERICENTER":72.8703,"MEAN_ANOMALY":209.4547,"EPHEMERIS_TYPE":0,"CLASSIFICATION_TYPE":"U","NORAD_CAT_ID":53481,"ELEMENT_SET_NO":999,"REV_AT_EPOCH":562,"BSTAR":-0.00084964313,"MEAN_MOTION_DOT":-0.00013045,"MEAN_MOTION_DDOT":0},{"OBJECT_NAME":"STARLINK-4360","OBJECT_ID":"2022-099T","EPOCH":"2026-03-24T00:00:02.000160","MEAN_MOTION":15.04859631,"ECCENTRICITY":0.00017924,"INCLINATION":97.6038,"RA_OF_ASC_NODE":204.2706,"ARG_OF_PERICENTER":84.268,"MEAN_ANOMALY":196.5104,"EPHEMERIS_TYPE":0,"CLASSIFICATION_TYPE":"U","NORAD_CAT_ID":53482,"ELEMENT_SET_NO":999,"REV_AT_EPOCH":572,"BSTAR":-0.003092938,"MEAN_MOTION_DOT":-0.0004349,"MEAN_MOTION_DDOT":0},{"OBJECT_NAME":"STARLINK-4426","OBJECT_ID":"2022-099V","EPOCH":"2026-03-23T18:20:23.708256","MEAN_MOTION":15.05637241,"ECCENTRICITY":6.021e-5,"INCLINATION":97.6037,"RA_OF_ASC_NODE":205.0678,"ARG_OF_PERICENTER":190.8292,"MEAN_ANOMALY":169.2922,"EPHEMERIS_TYPE":0,"CLASSIFICATION_TYPE":"U","NORAD_CAT_ID":53484,"ELEMENT_SET_NO":999,"REV_AT_EPOCH":19816,"BSTAR":6.4835342e-5,"MEAN_MOTION_DOT":8.75e-6,"MEAN_MOTION_DDOT":0},{"OBJECT_NAME":"STARLINK-4430","OBJECT_ID":"2022-099W","EPOCH":"2026-03-24T00:00:02.000160","MEAN_MOTION":15.05629411,"ECCENTRICITY":0.00018577,"INCLINATION":97.6048,"RA_OF_ASC_NODE":204.2274,"ARG_OF_PERICENTER":86.5378,"MEAN_ANOMALY":163.6221,"EPHEMERIS_TYPE":0,"CLASSIFICATION_TYPE":"U","NORAD_CAT_ID":53485,"ELEMENT_SET_NO":999,"REV_AT_EPOCH":572,"BSTAR":-0.002456589,"MEAN_MOTION_DOT":-0.00035313,"MEAN_MOTION_DDOT":0},{"OBJECT_NAME":"STARLINK-4431","OBJECT_ID":"2022-099X","EPOCH":"2026-03-24T00:00:02.000160","MEAN_MOTION":15.10093993,"ECCENTRICITY":0.00022438,"INCLINATION":97.6037,"RA_OF_ASC_NODE":204.2968,"ARG_OF_PERICENTER":96.6401,"MEAN_ANOMALY":285.8257,"EPHEMERIS_TYPE":0,"CLASSIFICATION_TYPE":"U","NORAD_CAT_ID":53486,"ELEMENT_SET_NO":999,"REV_AT_EPOCH":567,"BSTAR":-0.00072632013,"MEAN_MOTION_DOT":-0.00011867,"MEAN_MOTION_DDOT":0},{"OBJECT_NAME":"STARLINK-4432","OBJECT_ID":"2022-099Y","EPOCH":"2026-03-23T19:28:10.379136","MEAN_MOTION":15.05664324,"ECCENTRICITY":0.00011439,"INCLINATION":97.6035,"RA_OF_ASC_NODE":205.1364,"ARG_OF_PERICENTER":92.481,"MEAN_ANOMALY":267.6548,"EPHEMERIS_TYPE":0,"CLASSIFICATION_TYPE":"U","NORAD_CAT_ID":53487,"ELEMENT_SET_NO":999,"REV_AT_EPOCH":19817,"BSTAR":-7.4515196e-5,"MEAN_MOTION_DOT":-1.136e-5,"MEAN_MOTION_DDOT":0},{"OBJECT_NAME":"STARLINK-4421","OBJECT_ID":"2022-099Z","EPOCH":"2026-03-23T22:07:40.838016","MEAN_MOTION":15.05645343,"ECCENTRICITY":0.00011848,"INCLINATION":97.6028,"RA_OF_ASC_NODE":205.3097,"ARG_OF_PERICENTER":191.3941,"MEAN_ANOMALY":168.7259,"EPHEMERIS_TYPE":0,"CLASSIFICATION_TYPE":"U","NORAD_CAT_ID":53488,"ELEMENT_SET_NO":999,"REV_AT_EPOCH":19819,"BSTAR":1.9566752e-5,"MEAN_MOTION_DOT":2.22e-6,"MEAN_MOTION_DDOT":0},{"OBJECT_NAME":"STARLINK-4392","OBJECT_ID":"2022-099AA","EPOCH":"2026-03-23T21:29:09.605184","MEAN_MOTION":15.01271017,"ECCENTRICITY":0.00021967,"INCLINATION":97.604,"RA_OF_ASC_NODE":204.0989,"ARG_OF_PERICENTER":162.8063,"MEAN_ANOMALY":197.3236,"EPHEMERIS_TYPE":0,"CLASSIFICATION_TYPE":"U","NORAD_CAT_ID":53489,"ELEMENT_SET_NO":999,"REV_AT_EPOCH":19811,"BSTAR":-1.9230572e-5,"MEAN_MOTION_DOT":-3.05e-6,"MEAN_MOTION_DDOT":0},{"OBJECT_NAME":"STARLINK-4387","OBJECT_ID":"2022-099AB","EPOCH":"2026-03-23T20:57:29.170656","MEAN_MOTION":15.09080541,"ECCENTRICITY":0.00010565,"INCLINATION":97.6055,"RA_OF_ASC_NODE":205.2125,"ARG_OF_PERICENTER":96.058,"MEAN_ANOMALY":264.0769,"EPHEMERIS_TYPE":0,"CLASSIFICATION_TYPE":"U","NORAD_CAT_ID":53490,"ELEMENT_SET_NO":999,"REV_AT_EPOCH":19817,"BSTAR":0.0017242233,"MEAN_MOTION_DOT":0.00027339,"MEAN_MOTION_DDOT":0},{"OBJECT_NAME":"STARLINK-4450","OBJECT_ID":"2022-099AC","EPOCH":"2026-03-24T00:00:02.000160","MEAN_MOTION":15.08575202,"ECCENTRICITY":0.00014657,"INCLINATION":97.6024,"RA_OF_ASC_NODE":204.2986,"ARG_OF_PERICENTER":90.325,"MEAN_ANOMALY":347.2742,"EPHEMERIS_TYPE":0,"CLASSIFICATION_TYPE":"U","NORAD_CAT_ID":53491,"ELEMENT_SET_NO":999,"REV_AT_EPOCH":562,"BSTAR":-0.0010243207,"MEAN_MOTION_DOT":-0.00016022,"MEAN_MOTION_DDOT":0},{"OBJECT_NAME":"STARLINK-4451","OBJECT_ID":"2022-099AD","EPOCH":"2026-03-24T00:00:02.000160","MEAN_MOTION":15.05658175,"ECCENTRICITY":0.00020186,"INCLINATION":97.6029,"RA_OF_ASC_NODE":204.3001,"ARG_OF_PERICENTER":95.0588,"MEAN_ANOMALY":319.9869,"EPHEMERIS_TYPE":0,"CLASSIFICATION_TYPE":"U","NORAD_CAT_ID":53492,"ELEMENT_SET_NO":999,"REV_AT_EPOCH":567,"BSTAR":-0.0027426166,"MEAN_MOTION_DOT":-0.00039426,"MEAN_MOTION_DDOT":0}]
